[
    {
        "Altitude(m)": 556178.5565114472,
        "Argument of Periapsis(deg)": 0.026491964442854003,
        "Eccentricity": 0.0,
        "Inclination(deg)": 53.0,
        "Latitude(deg)": 36.30029698340059,
        "Longitude(deg)": 175.21842855086317,
        "Mean Anomaly(deg)": 47.639171470310345,
        "RAAN(deg)": 244.9605734741121,
        "Satellite Name": "Starlink Shell 1 1078",
        "Satellite Number": 1078,
        "Semi-Major Axis(m)": 6931778.249405717,
        "Time(s)": 760
    },
    {
        "Altitude(m)": 556261.539454631,
        "Argument of Periapsis(deg)": 0.02684054292236524,
        "Eccentricity": 0.0,
        "Inclination(deg)": 53.0,
        "Latitude(deg)": 36.71822587390582,
        "Longitude(deg)": 175.75884740865297,
        "Mean Anomaly(deg)": 48.26600267386704,
        "RAAN(deg)": 244.9600547040346,
        "Satellite Name": "Starlink Shell 1 1078",
        "Satellite Number": 1078,
        "Semi-Major Axis(m)": 6931778.249405717,
        "Time(s)": 770
    },
    {
        "Altitude(m)": 556344.7347440582,
        "Argument of Periapsis(deg)": 0.027189121401876473,
        "Eccentricity": 0.0,
        "Inclination(deg)": 53.0,
        "Latitude(deg)": 37.13325182387138,
        "Longitude(deg)": 176.3055740898569,
        "Mean Anomaly(deg)": 48.89283387742379,
        "RAAN(deg)": 244.95953593395714,
        "Satellite Name": "Starlink Shell 1 1078",
        "Satellite Number": 1078,
        "Semi-Major Axis(m)": 6931778.249405717,
        "Time(s)": 780
    },
    {
        "Altitude(m)": 556428.086884124,
        "Argument of Periapsis(deg)": 0.02753769988138771,
        "Eccentricity": 0.0,
        "Inclination(deg)": 53.0,
        "Latitude(deg)": 37.54530001423189,
        "Longitude(deg)": 176.8587291108526,
        "Mean Anomaly(deg)": 49.51966508098054,
        "RAAN(deg)": 244.95901716387965,
        "Satellite Name": "Starlink Shell 1 1078",
        "Satellite Number": 1078,
        "Semi-Major Axis(m)": 6931778.249405717,
        "Time(s)": 790
    },
    {
        "Altitude(m)": 556511.5405093106,
        "Argument of Periapsis(deg)": 0.02788627836089895,
        "Eccentricity": 0.0,
        "Inclination(deg)": 53.0,
        "Latitude(deg)": 37.95429393706658,
        "Longitude(deg)": 177.4184326891698,
        "Mean Anomaly(deg)": 50.14649628453718,
        "RAAN(deg)": 244.95849839380216,
        "Satellite Name": "Starlink Shell 1 1078",
        "Satellite Number": 1078,
        "Semi-Major Axis(m)": 6931778.249405717,
        "Time(s)": 800
    },
    {
        "Altitude(m)": 556595.040412552,
        "Argument of Periapsis(deg)": 0.02823485684041019,
        "Eccentricity": 0.0,
        "Inclination(deg)": 53.0,
        "Latitude(deg)": 38.360155368897914,
        "Longitude(deg)": 177.9848051023905,
        "Mean Anomaly(deg)": 50.773327488093926,
        "RAAN(deg)": 244.95797962372475,
        "Satellite Name": "Starlink Shell 1 1078",
        "Satellite Number": 1078,
        "Semi-Major Axis(m)": 6931778.249405717,
        "Time(s)": 810
    },
    {
        "Altitude(m)": 556678.531573456,
        "Argument of Periapsis(deg)": 0.028583435319921423,
        "Eccentricity": 0.0,
        "Inclination(deg)": 53.0,
        "Latitude(deg)": 38.762804345472915,
        "Longitude(deg)": 178.55796703452106,
        "Mean Anomaly(deg)": 51.400158691650624,
        "RAAN(deg)": 244.95746085364726,
        "Satellite Name": "Starlink Shell 1 1078",
        "Satellite Number": 1078,
        "Semi-Major Axis(m)": 6931778.249405717,
        "Time(s)": 820
    },
    {
        "Altitude(m)": 556761.9591864317,
        "Argument of Periapsis(deg)": 0.028932013799432665,
        "Eccentricity": 0.0,
        "Inclination(deg)": 53.0,
        "Latitude(deg)": 39.16215913823979,
        "Longitude(deg)": 179.1380383963512,
        "Mean Anomaly(deg)": 52.02698989520737,
        "RAAN(deg)": 244.95694208356974,
        "Satellite Name": "Starlink Shell 1 1078",
        "Satellite Number": 1078,
        "Semi-Major Axis(m)": 6931778.249405717,
        "Time(s)": 830
    },
    {
        "Altitude(m)": 556845.2686886229,
        "Argument of Periapsis(deg)": 0.029280592278943897,
        "Eccentricity": 0.0,
        "Inclination(deg)": 53.0,
        "Latitude(deg)": 39.55813623273613,
        "Longitude(deg)": 179.7251386449282,
        "Mean Anomaly(deg)": 52.653821098764105,
        "RAAN(deg)": 244.95642331349234,
        "Satellite Name": "Starlink Shell 1 1078",
        "Satellite Number": 1078,
        "Semi-Major Axis(m)": 6931778.249405717,
        "Time(s)": 840
    },
    {
        "Altitude(m)": 556928.4057876992,
        "Argument of Periapsis(deg)": 0.029629170758455132,
        "Eccentricity": 0.0,
        "Inclination(deg)": 53.0,
        "Latitude(deg)": 39.950650309130694,
        "Longitude(deg)": -179.68061291133642,
        "Mean Anomaly(deg)": 53.28065230232075,
        "RAAN(deg)": 244.95590454341485,
        "Satellite Name": "Starlink Shell 1 1078",
        "Satellite Number": 1078,
        "Semi-Major Axis(m)": 6931778.249405717,
        "Time(s)": 850
    },
    {
        "Altitude(m)": 557011.3164894806,
        "Argument of Periapsis(deg)": 0.02997774923796637,
        "Eccentricity": 0.0,
        "Inclination(deg)": 53.0,
        "Latitude(deg)": 40.33961422517543,
        "Longitude(deg)": -179.0790985034982,
        "Mean Anomaly(deg)": 53.9074835058775,
        "RAAN(deg)": 244.95538577333735,
        "Satellite Name": "Starlink Shell 1 1078",
        "Satellite Number": 1078,
        "Semi-Major Axis(m)": 6931778.249405717,
        "Time(s)": 860
    },
    {
        "Altitude(m)": 557093.9471253403,
        "Argument of Periapsis(deg)": 0.030326327717477602,
        "Eccentricity": 0.0,
        "Inclination(deg)": 53.0,
        "Latitude(deg)": 40.7249390018296,
        "Longitude(deg)": -178.47020078700805,
        "Mean Anomaly(deg)": 54.5343147094342,
        "RAAN(deg)": 244.9548670032599,
        "Satellite Name": "Starlink Shell 1 1078",
        "Satellite Number": 1078,
        "Semi-Major Axis(m)": 6931778.249405717,
        "Time(s)": 870
    },
    {
        "Altitude(m)": 557176.244379449,
        "Argument of Periapsis(deg)": 0.030674906196988847,
        "Eccentricity": 0.0,
        "Inclination(deg)": 53.0,
        "Latitude(deg)": 41.1065338118515,
        "Longitude(deg)": -177.85380426420966,
        "Mean Anomaly(deg)": 55.161145912990946,
        "RAAN(deg)": 244.9543482331824,
        "Satellite Name": "Starlink Shell 1 1078",
        "Satellite Number": 1078,
        "Semi-Major Axis(m)": 6931778.249405717,
        "Time(s)": 880
    },
    {
        "Altitude(m)": 557258.1553157584,
        "Argument of Periapsis(deg)": 0.031023484676500086,
        "Eccentricity": 0.0,
        "Inclination(deg)": 53.0,
        "Latitude(deg)": 41.48430597165203,
        "Longitude(deg)": -177.2297950425103,
        "Mean Anomaly(deg)": 55.78797711654764,
        "RAAN(deg)": 244.95382946310494,
        "Satellite Name": "Starlink Shell 1 1078",
        "Satellite Number": 1078,
        "Semi-Major Axis(m)": 6931778.249405717,
        "Time(s)": 890
    },
    {
        "Altitude(m)": 557339.627404802,
        "Argument of Periapsis(deg)": 0.03137206315601132,
        "Eccentricity": 0.0,
        "Inclination(deg)": 53.0,
        "Latitude(deg)": 41.858160936730705,
        "Longitude(deg)": -176.5980606096884,
        "Mean Anomaly(deg)": 56.414808320104335,
        "RAAN(deg)": 244.95331069302748,
        "Satellite Name": "Starlink Shell 1 1078",
        "Satellite Number": 1078,
        "Semi-Major Axis(m)": 6931778.249405717,
        "Time(s)": 900
    },
    {
        "Altitude(m)": 557420.6085502014,
        "Argument of Periapsis(deg)": 0.03172064163552255,
        "Eccentricity": 0.0,
        "Inclination(deg)": 53.0,
        "Latitude(deg)": 42.228002301031175,
        "Longitude(deg)": -175.95849113965642,
        "Mean Anomaly(deg)": 57.04163952366108,
        "RAAN(deg)": 244.95279192294998,
        "Satellite Name": "Starlink Shell 1 1078",
        "Satellite Number": 1078,
        "Semi-Major Axis(m)": 6931778.249405717,
        "Time(s)": 910
    },
    {
        "Altitude(m)": 557501.0471149888,
        "Argument of Periapsis(deg)": 0.0320692201150338,
        "Eccentricity": 0.0,
        "Inclination(deg)": 53.0,
        "Latitude(deg)": 42.59373180055964,
        "Longitude(deg)": -175.31097930331498,
        "Mean Anomaly(deg)": 57.66847072721778,
        "RAAN(deg)": 244.9522731528725,
        "Satellite Name": "Starlink Shell 1 1078",
        "Satellite Number": 1078,
        "Semi-Major Axis(m)": 6931778.249405717,
        "Time(s)": 920
    },
    {
        "Altitude(m)": 557580.8919476008,
        "Argument of Periapsis(deg)": 0.032417798594545036,
        "Eccentricity": 0.0,
        "Inclination(deg)": 53.0,
        "Latitude(deg)": 42.955249321633104,
        "Longitude(deg)": -174.655420097693,
        "Mean Anomaly(deg)": 58.29530193077453,
        "RAAN(deg)": 244.9517543827951,
        "Satellite Name": "Starlink Shell 1 1078",
        "Satellite Number": 1078,
        "Semi-Major Axis(m)": 6931778.249405717,
        "Time(s)": 930
    },
    {
        "Altitude(m)": 557660.092407639,
        "Argument of Periapsis(deg)": 0.03276637707405627,
        "Eccentricity": 0.0,
        "Inclination(deg)": 53.0,
        "Latitude(deg)": 43.312452914137936,
        "Longitude(deg)": -173.99171220648103,
        "Mean Anomaly(deg)": 58.92213313433122,
        "RAAN(deg)": 244.9512356127176,
        "Satellite Name": "Starlink Shell 1 1078",
        "Satellite Number": 1078,
        "Semi-Major Axis(m)": 6931778.249405717,
        "Time(s)": 940
    }
]